[
  {
    "OBJECT_NAME": "STARLINK-34220",
    "OBJECT_ID": "25157AC",
    "EPOCH": "2025-11-10T23:51:37.653120",
    "MEAN_MOTION": 15.39674218,
    "ECCENTRICITY": 2.35e-05,
    "INCLINATION": 53.1573,
    "RA_OF_ASC_NODE": 182.4796,
    "ARG_OF_PERICENTER": 135.1298,
    "MEAN_ANOMALY": 224.9726,
    "EPHEMERIS_TYPE": 0,
    "CLASSIFICATION_TYPE": "U",
    "NORAD_CAT_ID": 64930,
    "ELEMENT_SET_NO": 999,
    "REV_AT_EPOCH": 1776,
    "BSTAR": 0.0017201,
    "MEAN_MOTION_DOT": 0.00069155,
    "MEAN_MOTION_DDOT": 0.0,
    "TLE_LINE1": "1 64930U 25157AC  25314.99418580  .00069155  00000+0  17201-2 0  9999",
    "TLE_LINE2": "2 64930  53.1573 182.4796 0000235 135.1298 224.9726 15.39674218 17763",
    "COMMENT": "Grouped by shell and plane from TLE"
  },
  {
    "OBJECT_NAME": "STARLINK-34715",
    "OBJECT_ID": "25157AD",
    "EPOCH": "2025-11-11T08:00:03.000384",
    "MEAN_MOTION": 15.39538272,
    "ECCENTRICITY": 0.0001504,
    "INCLINATION": 53.1571,
    "RA_OF_ASC_NODE": 181.0917,
    "ARG_OF_PERICENTER": 119.3688,
    "MEAN_ANOMALY": 218.8504,
    "EPHEMERIS_TYPE": 0,
    "CLASSIFICATION_TYPE": "U",
    "NORAD_CAT_ID": 64931,
    "ELEMENT_SET_NO": 999,
    "REV_AT_EPOCH": 586,
    "BSTAR": 0.0010197000000000001,
    "MEAN_MOTION_DOT": 0.00040497,
    "MEAN_MOTION_DDOT": 0.0,
    "TLE_LINE1": "1 64931U 25157AD  25315.33336806  .00040497  00000+0  10197-2 0  9994",
    "TLE_LINE2": "2 64931  53.1571 181.0917 0001504 119.3688 218.8504 15.39538272  5862",
    "COMMENT": "Grouped by shell and plane from TLE"
  }
]